$$SOE
2460728.500000000, A.D. 2025-Feb-22 00:00:00.0000, -3.979828898822855E+08, -2.424411522873475E+07, 6.397928936518095E+07,
2460735.500000000, A.D. 2025-Mar-01 00:00:00.0000, -3.957275694522571E+08, -3.373427744982097E+07, 6.370828499975540E+07,
2460742.500000000, A.D. 2025-Mar-08 00:00:00.0000, -3.931770494373024E+08, -4.319930630576134E+07, 6.338975663328872E+07,
2460749.500000000, A.D. 2025-Mar-15 00:00:00.0000, -3.903295908480627E+08, -5.263173919693586E+07, 6.302335504944399E+07,
2460756.500000000, A.D. 2025-Mar-22 00:00:00.0000, -3.871835169915314E+08, -6.202393241976899E+07, 6.260873937350933E+07,
2460763.500000000, A.D. 2025-Mar-29 00:00:00.0000, -3.837372208547140E+08, -7.136805312283505E+07, 6.214557796205195E+07,
2460770.500000000, A.D. 2025-Apr-05 00:00:00.0000, -3.799891715405062E+08, -8.065607006665803E+07, 6.163354932686375E+07,
2460777.500000000, A.D. 2025-Apr-12 00:00:00.0000, -3.759379217350806E+08, -8.987974308423054E+07, 6.107234328519344E+07,
2460784.500000000, A.D. 2025-Apr-19 00:00:00.0000, -3.715821164575716E+08, -9.903061213397060E+07, 6.046166229036553E+07,
2460791.500000000, A.D. 2025-Apr-26 00:00:00.0000, -3.669205028976012E+08, -1.080999861633501E+08, 5.980122291366029E+07,
2460798.500000000, A.D. 2025-May-03 00:00:00.0000, -3.619519413146616E+08, -1.170789317808621E+08, 5.909075748356500E+07,
2460805.500000000, A.D. 2025-May-10 00:00:00.0000, -3.566754170655690E+08, -1.259582617467823E+08, 5.833001589676838E+07,
2460812.500000000, A.D. 2025-May-17 00:00:00.0000, -3.510900538237370E+08, -1.347285233475374E+08, 5.751876761112652E+07,
2460819.500000000, A.D. 2025-May-24 00:00:00.0000, -3.451951279226846E+08, -1.433799867391427E+08, 5.665680381778011E+07,
2460826.500000000, A.D. 2025-May-31 00:00:00.0000, -3.389900835190110E+08, -1.519026329890027E+08, 5.574393979796851E+07,
2460833.500000000, A.D. 2025-Jun-07 00:00:00.0000, -3.324745490959547E+08, -1.602861406625866E+08, 5.478001761927789E+07,
2460840.500000000, A.D. 2025-Jun-14 00:00:00.0000, -3.256483578003798E+08, -1.685198716869484E+08, 5.376490935451746E+07,
2460847.500000000, A.D. 2025-Jun-21 00:00:00.0000, -3.185115705361090E+08, -1.765928598443142E+08, 5.269852046726823E+07,
2460854.500000000, A.D. 2025-Jun-28 00:00:00.0000, -3.110644988367330E+08, -1.844938002289618E+08, 5.158079324676712E+07,
2460861.500000000, A.D. 2025-Jul-05 00:00:00.0000, -3.033077291926899E+08, -1.922110376252364E+08, 5.041171063399921E+07,
2460868.500000000, A.D. 2025-Jul-12 00:00:00.0000, -2.952421501870674E+08, -1.997325547486129E+08, 4.919130050964841E+07,
2460875.500000000, A.D. 2025-Jul-19 00:00:00.0000, -2.868689824219464E+08, -2.070459610899235E+08, 4.791964040824497E+07,
2460882.500000000, A.D. 2025-Jul-26 00:00:00.0000, -2.781898112061530E+08, -2.141384826154855E+08, 4.659686266551904E+07,
2460889.500000000, A.D. 2025-Aug-02 00:00:00.0000, -2.692066221265883E+08, -2.209969525302766E+08, 4.522316002727424E+07,
2460896.500000000, A.D. 2025-Aug-09 00:00:00.0000, -2.599218396696969E+08, -2.276078033843935E+08, 4.379879174969530E+07,
2460903.500000000, A.D. 2025-Aug-16 00:00:00.0000, -2.503383690052731E+08, -2.339570608944450E+08, 4.232409021231966E+07,
2460910.500000000, A.D. 2025-Aug-23 00:00:00.0000, -2.404596408250704E+08, -2.400303398204551E+08, 4.079946805145548E+07,
2460917.500000000, A.D. 2025-Aug-30 00:00:00.0000, -2.302896590835699E+08, -2.458128415952081E+08, 3.922542587461625E+07,
2460924.500000000, A.D. 2025-Sep-06 00:00:00.0000, -2.198330532193816E+08, -2.512893531759506E+08, 3.760256079809999E+07,
2460931.500000000, A.D. 2025-Sep-13 00:00:00.0000, -2.090951366643394E+08, -2.564442501384279E+08, 3.593157578509222E+07,
2460938.500000000, A.D. 2025-Sep-20 00:00:00.0000, -1.980819684728923E+08, -2.612615062703178E+08, 3.421328937285357E+07,
2460945.500000000, A.D. 2025-Sep-27 00:00:00.0000, -1.868004170776388E+08, -2.657247072432349E+08, 3.244864596367002E+07,
2460952.500000000, A.D. 2025-Oct-04 00:00:00.0000, -1.752582281932427E+08, -2.698170685947092E+08, 3.063872691715370E+07,
2460959.500000000, A.D. 2025-Oct-11 00:00:00.0000, -1.634640971710630E+08, -2.735214598184035E+08, 2.878476239765562E+07,
2460966.500000000, A.D. 2025-Oct-18 00:00:00.0000, -1.514277453523999E+08, -2.768204357810761E+08, 2.688814390975241E+07,
2460973.500000000, A.D. 2025-Oct-25 00:00:00.0000, -1.391599999933513E+08, -2.796962764911097E+08, 2.495043747317308E+07,
2460980.500000000, A.D. 2025-Nov-01 00:00:00.0000, -1.266728772919675E+08, -2.821310363275901E+08, 2.297339737655669E+07,
2460987.500000000, A.D. 2025-Nov-08 00:00:00.0000, -1.139796678814532E+08, -2.841066039634850E+08, 2.095898041944438E+07,
2460994.500000000, A.D. 2025-Nov-15 00:00:00.0000, -1.010950238329957E+08, -2.856047743064148E+08, 1.890936050667410E+07,
2461001.500000000, A.D. 2025-Nov-22 00:00:00.0000, -8.803504571400705E+07, -2.866073335452088E+08, 1.682694342031577E+07,
2461008.500000000, A.D. 2025-Nov-29 00:00:00.0000, -7.481736852446535E+07, -2.870961574897441E+08, 1.471438167568064E+07,
2461015.500000000, A.D. 2025-Dec-06 00:00:00.0000, -6.146124714236546E+07, -2.870533246349232E+08, 1.257458940804091E+07,
2461022.500000000, A.D. 2025-Dec-13 00:00:00.0000, -4.798763884751017E+07, -2.864612485347524E+08, 1.041075666661942E+07,
2461029.500000000, A.D. 2025-Dec-20 00:00:00.0000, -3.441927705689332E+07, -2.853028295341148E+08, 8.226362508608222E+06,
2461036.500000000, A.D. 2025-Dec-27 00:00:00.0000, -2.078073457441172E+07, -2.835616240986546E+08, 6.025186765542701E+06,
2461043.500000000, A.D. 2026-Jan-03 00:00:00.0000, -7.098474626049422E+06, -2.812220328418736E+08, 3.811320056609884E+06,
2461050.500000000, A.D. 2026-Jan-10 00:00:00.0000, 6.599114037282884E+06, -2.782695079579145E+08, 1.589171404775754E+06,
2461057.500000000, A.D. 2026-Jan-17 00:00:00.0000, 2.028170219562909E+07, -2.746907796198496E+08, -6.365272151143104E+05,
2461064.500000000, A.D. 2026-Jan-24 00:00:00.0000, 3.391702975213586E+07, -2.704741000995523E+08, -2.860720097784251E+06,
2461071.500000000, A.D. 2026-Jan-31 00:00:00.0000, 4.747094437669533E+07, -2.656095035542185E+08, -5.078031538123325E+06,
2461078.500000000, A.D. 2026-Feb-07 00:00:00.0000, 6.090747380161324E+07, -2.600890784854989E+08, -7.282774837189659E+06,
2461085.500000000, A.D. 2026-Feb-14 00:00:00.0000, 7.418893641875353E+07, -2.539072487228301E+08, -9.468967352968171E+06,
2461092.500000000, A.D. 2026-Feb-21 00:00:00.0000, 8.727609458033650E+07, -2.470610569940357E+08, -1.163035227986029E+07,
2461099.500000000, A.D. 2026-Feb-28 00:00:00.0000, 1.001283528627943E+08, -2.395504433473058E+08, -1.376042756276403E+07,
2461106.500000000, A.D. 2026-Mar-07 00:00:00.0000, 1.127040015791677E+08, -2.313785126120697E+08, -1.585248236642051E+07,
2461113.500000000, A.D. 2026-Mar-14 00:00:00.0000, 1.249605093124695E+08, -2.225517844233203E+08, -1.789964178857127E+07,
2461120.500000000, A.D. 2026-Mar-21 00:00:00.0000, 1.368548655578194E+08, -2.130804133019810E+08, -1.989491972280665E+07,
2461127.500000000, A.D. 2026-Mar-28 00:00:00.0000, 1.483439687635613E+08, -2.029783676967855E+08, -2.183127926529258E+07,
2461134.500000000, A.D. 2026-Apr-04 00:00:00.0000, 1.593850542257032E+08, -1.922635588840965E+08, -2.370169999277663E+07,
2461141.500000000, A.D. 2026-Apr-11 00:00:00.0000, 1.699361548043373E+08, -1.809579105704081E+08, -2.549925108643935E+07,
2461148.500000000, A.D. 2026-Apr-18 00:00:00.0000, 1.799565849788073E+08, -1.690873608692073E+08, -2.721716885111964E+07,
2461155.500000000, A.D. 2026-Apr-25 00:00:00.0000, 1.894074365095152E+08, -1.566817901311585E+08, -2.884893680813350E+07,
2461162.500000000, A.D. 2026-May-02 00:00:00.0000, 1.982520722132050E+08, -1.437748705909093E+08, -3.038836624005400E+07,
2461169.500000000, A.D. 2026-May-09 00:00:00.0000, 2.064566032844879E+08, -1.304038367749429E+08, -3.182967486210234E+07,
2461176.500000000, A.D. 2026-May-16 00:00:00.0000, 2.139903354382306E+08, -1.166091787049681E+08, -3.316756120153309E+07,
2461183.500000000, A.D. 2026-May-23 00:00:00.0000, 2.208261692673000E+08, -1.024342625027048E+08, -3.439727220276676E+07,
2461190.500000000, A.D. 2026-May-30 00:00:00.0000, 2.269409393795877E+08, -8.792488704707597E+07, -3.551466161810157E+07,
2461197.500000000, A.D. 2026-Jun-06 00:00:00.0000, 2.323156807589236E+08, -7.312879186570644E+07, -3.651623751108208E+07,
2461204.500000000, A.D. 2026-Jun-13 00:00:00.0000, 2.369358176233512E+08, -5.809513029270130E+07, -3.739919771260306E+07,
2461211.500000000, A.D. 2026-Jun-20 00:00:00.0000, 2.407912692533604E+08, -4.287392073849000E+07, -3.816145198877611E+07,
2461218.500000000, A.D. 2026-Jun-27 00:00:00.0000, 2.438764696793092E+08, -2.751549281294812E+07, -3.880163041040706E+07,
2461225.500000000, A.D. 2026-Jul-04 00:00:00.0000, 2.461903034082259E+08, -1.206994515954750E+07, -3.931907818412971E+07,
2461232.500000000, A.D. 2026-Jul-11 00:00:00.0000, 2.477359629425931E+08, 3.413369986520812E+06, -3.971383771892316E+07,
2461239.500000000, A.D. 2026-Jul-18 00:00:00.0000, 2.485207365051331E+08, 1.888632260738452E+07, -3.998661914462305E+07,
2461246.500000000, A.D. 2026-Jul-25 00:00:00.0000, 2.485557364805050E+08, 3.430243064518052E+07, -4.013876086517970E+07,
2461253.500000000, A.D. 2026-Aug-01 00:00:00.0000, 2.478555805281480E+08, 4.961722802075420E+07, -4.017218199021801E+07,
2461260.500000000, A.D. 2026-Aug-08 00:00:00.0000, 2.464380381447876E+08, 6.478857020728248E+07, -4.008932863647504E+07,
2461267.500000000, A.D. 2026-Aug-15 00:00:00.0000, 2.443236555867208E+08, 7.977687593901879E+07, -3.989311608441399E+07,
2461274.500000000, A.D. 2026-Aug-22 00:00:00.0000, 2.415353702024141E+08, 9.454530697105317E+07, -3.958686851639546E+07,
2461281.500000000, A.D. 2026-Aug-29 00:00:00.0000, 2.380981225891141E+08, 1.090598873898571E+08, -3.917425798027163E+07,
2461288.500000000, A.D. 2026-Sep-05 00:00:00.0000, 2.340384779504811E+08, 1.232895641510211E+08, -3.865924453550349E+07,
$$EOE